{
  "type": "FeatureCollection",
  "features": [
    {"type":"Feature","properties":{"name":"Adair","state":"MO"},"geometry":{"type":"Polygon","coordinates":[[[-92.80,40.00],[-92.30,40.00],[-92.30,40.40],[-92.80,40.40],[-92.80,40.00]]]}},
    {"type":"Feature","properties":{"name":"Audrain","state":"MO"},"geometry":{"type":"Polygon","coordinates":[[[-92.35,39.00],[-91.75,39.00],[-91.75,39.45],[-92.35,39.45],[-92.35,39.00]]]}},
    {"type":"Feature","properties":{"name":"Boone","state":"MO"},"geometry":{"type":"Polygon","coordinates":[[[-92.60,38.75],[-92.05,38.75],[-92.05,39.20],[-92.60,39.20],[-92.60,38.75]]]}},
    {"type":"Feature","properties":{"name":"Callaway","state":"MO"},"geometry":{"type":"Polygon","coordinates":[[[-92.10,38.55],[-91.45,38.55],[-91.45,39.05],[-92.10,39.05],[-92.10,38.55]]]}},
    {"type":"Feature","properties":{"name":"Chariton","state":"MO"},"geometry":{"type":"Polygon","coordinates":[[[-93.35,39.25],[-92.65,39.25],[-92.65,39.75],[-93.35,39.75],[-93.35,39.25]]]}},
    {"type":"Feature","properties":{"name":"Cole","state":"MO"},"geometry":{"type":"Polygon","coordinates":[[[-92.45,38.25],[-91.95,38.25],[-91.95,38.65],[-92.45,38.65],[-92.45,38.25]]]}},
    {"type":"Feature","properties":{"name":"Cooper","state":"MO"},"geometry":{"type":"Polygon","coordinates":[[[-93.25,38.75],[-92.65,38.75],[-92.65,39.15],[-93.25,39.15],[-93.25,38.75]]]}},
    {"type":"Feature","properties":{"name":"Howard","state":"MO"},"geometry":{"type":"Polygon","coordinates":[[[-92.95,39.10],[-92.35,39.10],[-92.35,39.55],[-92.95,39.55],[-92.95,39.10]]]}},
    {"type":"Feature","properties":{"name":"Monroe","state":"MO"},"geometry":{"type":"Polygon","coordinates":[[[-92.35,39.45],[-91.55,39.45],[-91.55,39.95],[-92.35,39.95],[-92.35,39.45]]]}}
  ]
}
